NIMIQ 2                 
1 27632U 02062A   26201.66794608 -.00000076  00000+0  00000+0 0  9999
2 27632   9.5212  56.5408 0005473  57.9593 315.1819  1.00272320 44526
ANIK F2                 
1 28378U 04027A   26201.59629867 -.00000053  00000+0  00000+0 0  9991
2 28378   3.3719  79.0018 0003733  34.4891 288.4133  1.00272187 41599
ANIK F1R                
1 28868U 05036A   26201.66837941 -.00000079  00000+0  00000+0 0  9996
2 28868   4.3963  76.1628 0003972  22.3844 333.1973  1.00272268 46785
ANIK F3                 
1 31102U 07009A   26201.73740034 -.00000002  00000+0  00000+0 0  9993
2 31102   1.2823  83.4543 0002692  35.6332 326.1620  1.00272833 46908
NIMIQ 4                 
1 33373U 08044A   26201.81598094 -.00000220  00000+0  00000+0 0  9993
2 33373   0.0219  58.5726 0001797  54.2258  37.5277  1.00270276 65328
TELSTAR 11N             
1 34111U 09009A   26201.83794926 -.00000251  00000+0  00000+0 0  9994
2 34111   0.0124  32.6370 0002428  77.5895  92.4855  1.00271956 46584
TERRESTAR-1             
1 35496U 09035A   26201.59638534 -.00000060  00000+0  00000+0 0  9993
2 35496   5.2006  48.7621 0002507  63.9408 289.3700  1.00270304 62468
NIMIQ 5                 
1 35873U 09050A   26201.81780095 -.00000257  00000+0  00000+0 0  9992
2 35873   0.0268 275.1584 0002898 196.3096  48.8251  1.00272079 61684
SKYTERRA 1              
1 37218U 10061A   26201.66950609 -.00000122  00000+0  00000+0 0  9995
2 37218   5.1946  50.7994 0002666  28.8372 358.4880  1.00272101 57532
TELSTAR 14R             
1 37602U 11021A   26201.60063200 -.00000028  00000+0  00000+0 0  9990
2 37602   0.0973  84.9677 0008030 293.8565  47.2347  0.98982217 56160
NIMIQ 6                 
1 38342U 12026A   26201.60028535 -.00000174  00000+0  00000+0 0  9992
2 38342   0.0576 263.9349 0002921 217.9854 301.4503  1.00271361 50749
ANIK G1                 
1 39127U 13014A   26201.66837941 -.00000075  00000+0  00000+0 0  9997
2 39127   0.0122 354.0799 0001924 131.4282 306.2413  1.00272285 48584
TELSTAR 12V             
1 41036U 15068A   26201.82924100 -.00000119  00000+0  00000+0 0  9991
2 41036   0.0169  77.5322 0002326  37.0519 107.5281  1.00271425 38968
VIASAT-2                
1 42740U 17029A   26201.60444536 -.00000266  00000+0  00000+0 0  9992
2 42740   0.0216 297.8826 0000493 220.8553 287.3256  1.00271244 33539
LEO 1 (LEO VANTAGE 1)   
1 43113U 18004C   26201.78530972  .00002507  00000+0  17748-3 0  9990
2 43113  99.2403 124.4650 0348929 336.5039  22.0544 14.68053676442415
TELSTAR 19V             
1 43562U 18059A   26201.81970762 -.00000280  00000+0  00000+0 0  9993
2 43562   0.0301 166.5285 0003081 322.6728  41.4728  1.00270792 29488
TELSTAR 18V             
1 43611U 18069A   26201.85952433 -.00000294  00000+0  00000+0 0  9993
2 43611   0.0359 240.6830 0001923 236.0901 269.2905  1.00271411 28979
AMOS-17                 
1 44479U 19050A   26201.83556769  .00000109  00000+0  00000+0 0  9991
2 44479   0.0164  13.8163 0001523 100.3947 142.1949  1.00269942 25525
